[{"OBJECT_NAME":"SALSAT","OBJECT_ID":"2020-068K","EPOCH":"2026-03-09T22:26:21.804576","MEAN_MOTION":15.28191989,"ECCENTRICITY":0.00082652,"INCLINATION":97.8859,"RA_OF_ASC_NODE":66.0795,"ARG_OF_PERICENTER":295.8051,"MEAN_ANOMALY":64.2334,"EPHEMERIS_TYPE":0,"CLASSIFICATION_TYPE":"U","NORAD_CAT_ID":46495,"ELEMENT_SET_NO":999,"REV_AT_EPOCH":30019,"BSTAR":0.00040842582,"MEAN_MOTION_DOT":0.00011156,"MEAN_MOTION_DDOT":0},{"OBJECT_NAME":"STARLINK-34508","OBJECT_ID":"2025-137H","EPOCH":"2026-03-09T22:22:24.214944","MEAN_MOTION":15.30242327,"ECCENTRICITY":0.00010718,"INCLINATION":53.1607,"RA_OF_ASC_NODE":333.9898,"ARG_OF_PERICENTER":98.7808,"MEAN_ANOMALY":261.3315,"EPHEMERIS_TYPE":0,"CLASSIFICATION_TYPE":"U","NORAD_CAT_ID":64601,"ELEMENT_SET_NO":999,"REV_AT_EPOCH":4077,"BSTAR":0.00095187672,"MEAN_MOTION_DOT":0.00027976,"MEAN_MOTION_DDOT":0}]
